[{"OBJECT_NAME":"OBJECT H","OBJECT_ID":"2025-055H","EPOCH":"2026-03-09T23:29:50.051328","MEAN_MOTION":15.30330066,"ECCENTRICITY":0.00075967,"INCLINATION":97.636,"RA_OF_ASC_NODE":211.9572,"ARG_OF_PERICENTER":140.4354,"MEAN_ANOMALY":219.7441,"EPHEMERIS_TYPE":0,"CLASSIFICATION_TYPE":"U","NORAD_CAT_ID":63298,"ELEMENT_SET_NO":999,"REV_AT_EPOCH":5423,"BSTAR":0.0015582864,"MEAN_MOTION_DOT":0.00045901,"MEAN_MOTION_DDOT":0},{"OBJECT_NAME":"STARLINK-34382","OBJECT_ID":"2025-139D","EPOCH":"2026-03-09T10:52:04.623456","MEAN_MOTION":15.30185357,"ECCENTRICITY":0.00012072,"INCLINATION":53.1577,"RA_OF_ASC_NODE":128.4386,"ARG_OF_PERICENTER":68.0402,"MEAN_ANOMALY":292.0727,"EPHEMERIS_TYPE":0,"CLASSIFICATION_TYPE":"U","NORAD_CAT_ID":64667,"ELEMENT_SET_NO":999,"REV_AT_EPOCH":4024,"BSTAR":0.000723606,"MEAN_MOTION_DOT":0.00021123,"MEAN_MOTION_DDOT":0}]
